[{"OBJECT_NAME":"APRIZESAT 1","OBJECT_ID":"2004-025G","EPOCH":"2026-03-09T23:27:31.277376","MEAN_MOTION":14.51715108,"ECCENTRICITY":0.00458388,"INCLINATION":98.6346,"RA_OF_ASC_NODE":76.9867,"ARG_OF_PERICENTER":96.737,"MEAN_ANOMALY":263.9043,"EPHEMERIS_TYPE":0,"CLASSIFICATION_TYPE":"U","NORAD_CAT_ID":28372,"ELEMENT_SET_NO":999,"REV_AT_EPOCH":14751,"BSTAR":0.00011028964,"MEAN_MOTION_DOT":4.0e-6,"MEAN_MOTION_DDOT":0},{"OBJECT_NAME":"COSMOS 2251 DEB","OBJECT_ID":"1993-036CK","EPOCH":"2026-03-09T23:23:12.940512","MEAN_MOTION":14.42920155,"ECCENTRICITY":0.00459533,"INCLINATION":74.0322,"RA_OF_ASC_NODE":57.6973,"ARG_OF_PERICENTER":147.0151,"MEAN_ANOMALY":213.3888,"EPHEMERIS_TYPE":0,"CLASSIFICATION_TYPE":"U","NORAD_CAT_ID":33842,"ELEMENT_SET_NO":999,"REV_AT_EPOCH":89595,"BSTAR":0.00033534756,"MEAN_MOTION_DOT":1.109e-5,"MEAN_MOTION_DDOT":0}]
